ONEWEB-0375             
1 49301U 21090Y   26041.13153635  .00000102  00000+0  21810-3 0  9996
2 49301  87.9213 299.7915 0002040  66.9207 293.2141 13.20772904213752
ONEWEB-0376             
1 49302U 21090Z   26040.81606543  .00000045  00000+0  78923-4 0  9996
2 49302  87.9259 330.3138 0001585  81.7359 278.3954 13.19724725209654
ONEWEB-0377             
1 49303U 21090AA  26040.73869426  .00000024  00000+0  28231-4 0  9993
2 49303  87.9214 299.8726 0001853  81.8834 278.2509 13.20774112213696
ONEWEB-0378             
1 49304U 21090AB  26041.13956206  .00000101  00000+0  21586-3 0  9993
2 49304  87.9205 299.8051 0001696  73.2816 286.8503 13.20771065213017
ONEWEB-0379             
1 49305U 21090AC  26041.14949501  .00000065  00000+0  14035-3 0  9995
2 49305  87.9029 315.0374 0001674  72.7297 287.4016 13.14502999210872
ONEWEB-0380             
1 49306U 21090AD  26040.81290191  .00000042  00000+0  73776-4 0  9996
2 49306  87.9251 330.3319 0002037  76.0097 284.1262 13.19724252209629
ONEWEB-0381             
1 49307U 21090AE  26041.11417503  .00000098  00000+0  20829-3 0  9990
2 49307  87.9217 299.8009 0001800  70.3747 289.7580 13.20770950213057
ONEWEB-0382             
1 49308U 21090AF  26041.10154780 -.00000003  00000+0 -39605-4 0  9996
2 49308  87.9214 299.8001 0001703  69.6636 290.4680 13.20770625213045
ONEWEB-0383             
1 49309U 21090AG  26041.14316194  .00000181  00000+0  45390-3 0  9992
2 49309  87.9032 315.0240 0001624  71.9645 288.1662 13.14503781210904
ONEWEB-0384             
1 49310U 21090AH  26041.09360505 -.00000174  00000+0 -45842-3 0  9999
2 49310  87.9224 299.8423 0001553  64.5368 295.5926 13.20803964213059
ONEWEB-0385             
1 49311U 21090AJ  26041.09365866  .00004476  00000+0  10971-1 0  9995
2 49311  87.9203 299.8075 0001435  83.0154 277.1142 13.20768864213020
ONEWEB-0386             
1 49312U 21090AK  26041.11101365  .00000087  00000+0  18326-3 0  9999
2 49312  87.9215 299.7867 0001667  67.4441 292.6868 13.20770680213042
ONEWEB-0387             
1 49313U 21090AL  26041.09523682  .00000045  00000+0  79954-4 0  9996
2 49313  87.9205 299.8305 0001945  76.5867 283.5483 13.20770716213044
ONEWEB-0388             
1 49314U 21090AM  26040.80816889  .00000348  00000+0  83773-3 0  9998
2 49314  87.9248 330.3303 0001826  73.5874 286.5459 13.19723310209614
ONEWEB-0389             
1 50469U 21132A   26040.92969152  .00000013  00000+0  67686-6 0  9990
2 50469  87.9103  31.1490 0002142  77.5883 282.5488 13.17650684201325
ONEWEB-0390             
1 50470U 21132B   26040.93139100  .00000052  00000+0  10135-3 0  9992
2 50470  87.9102  31.1496 0002077  91.6444 268.4925 13.17649699201322
ONEWEB-0391             
1 50471U 21132C   26040.93307266  .00000039  00000+0  66890-4 0  9998
2 50471  87.9100  31.1583 0002676  79.4700 280.6733 13.17647427201322
