[{"OBJECT_NAME":"ONEWEB-0375","OBJECT_ID":"2021-090Y","EPOCH":"2026-02-10T03:09:24.740640","MEAN_MOTION":13.20772904,"ECCENTRICITY":0.000204,"INCLINATION":87.9213,"RA_OF_ASC_NODE":299.7915,"ARG_OF_PERICENTER":66.9207,"MEAN_ANOMALY":293.2141,"EPHEMERIS_TYPE":0,"CLASSIFICATION_TYPE":"U","NORAD_CAT_ID":49301,"ELEMENT_SET_NO":999,"REV_AT_EPOCH":21375,"BSTAR":0.0002181,"MEAN_MOTION_DOT":1.02e-6,"MEAN_MOTION_DDOT":0},{"OBJECT_NAME":"ONEWEB-0376","OBJECT_ID":"2021-090Z","EPOCH":"2026-02-09T19:35:08.053152","MEAN_MOTION":13.19724725,"ECCENTRICITY":0.00015856,"INCLINATION":87.9259,"RA_OF_ASC_NODE":330.3138,"ARG_OF_PERICENTER":81.7359,"MEAN_ANOMALY":278.3954,"EPHEMERIS_TYPE":0,"CLASSIFICATION_TYPE":"U","NORAD_CAT_ID":49302,"ELEMENT_SET_NO":999,"REV_AT_EPOCH":20965,"BSTAR":7.8923169e-5,"MEAN_MOTION_DOT":4.5e-7,"MEAN_MOTION_DDOT":0},{"OBJECT_NAME":"ONEWEB-0377","OBJECT_ID":"2021-090AA","EPOCH":"2026-02-09T17:43:43.184064","MEAN_MOTION":13.20774112,"ECCENTRICITY":0.00018533,"INCLINATION":87.9214,"RA_OF_ASC_NODE":299.8726,"ARG_OF_PERICENTER":81.8834,"MEAN_ANOMALY":278.2509,"EPHEMERIS_TYPE":0,"CLASSIFICATION_TYPE":"U","NORAD_CAT_ID":49303,"ELEMENT_SET_NO":999,"REV_AT_EPOCH":21369,"BSTAR":2.8231155e-5,"MEAN_MOTION_DOT":2.4e-7,"MEAN_MOTION_DDOT":0},{"OBJECT_NAME":"ONEWEB-0378","OBJECT_ID":"2021-090AB","EPOCH":"2026-02-10T03:20:58.161984","MEAN_MOTION":13.20771065,"ECCENTRICITY":0.0001696,"INCLINATION":87.9205,"RA_OF_ASC_NODE":299.8051,"ARG_OF_PERICENTER":73.2816,"MEAN_ANOMALY":286.8503,"EPHEMERIS_TYPE":0,"CLASSIFICATION_TYPE":"U","NORAD_CAT_ID":49304,"ELEMENT_SET_NO":999,"REV_AT_EPOCH":21301,"BSTAR":0.00021586,"MEAN_MOTION_DOT":1.01e-6,"MEAN_MOTION_DDOT":0},{"OBJECT_NAME":"ONEWEB-0379","OBJECT_ID":"2021-090AC","EPOCH":"2026-02-10T03:35:16.368864","MEAN_MOTION":13.14502999,"ECCENTRICITY":0.0001674,"INCLINATION":87.9029,"RA_OF_ASC_NODE":315.0374,"ARG_OF_PERICENTER":72.7297,"MEAN_ANOMALY":287.4016,"EPHEMERIS_TYPE":0,"CLASSIFICATION_TYPE":"U","NORAD_CAT_ID":49305,"ELEMENT_SET_NO":999,"REV_AT_EPOCH":21087,"BSTAR":0.00014035,"MEAN_MOTION_DOT":6.5e-7,"MEAN_MOTION_DDOT":0},{"OBJECT_NAME":"ONEWEB-0380","OBJECT_ID":"2021-090AD","EPOCH":"2026-02-09T19:30:34.725024","MEAN_MOTION":13.19724252,"ECCENTRICITY":0.0002037,"INCLINATION":87.9251,"RA_OF_ASC_NODE":330.3319,"ARG_OF_PERICENTER":76.0097,"MEAN_ANOMALY":284.1262,"EPHEMERIS_TYPE":0,"CLASSIFICATION_TYPE":"U","NORAD_CAT_ID":49306,"ELEMENT_SET_NO":999,"REV_AT_EPOCH":20962,"BSTAR":7.3776435e-5,"MEAN_MOTION_DOT":4.2e-7,"MEAN_MOTION_DDOT":0},{"OBJECT_NAME":"ONEWEB-0381","OBJECT_ID":"2021-090AE","EPOCH":"2026-02-10T02:44:24.722592","MEAN_MOTION":13.2077095,"ECCENTRICITY":0.00018,"INCLINATION":87.9217,"RA_OF_ASC_NODE":299.8009,"ARG_OF_PERICENTER":70.3747,"MEAN_ANOMALY":289.758,"EPHEMERIS_TYPE":0,"CLASSIFICATION_TYPE":"U","NORAD_CAT_ID":49307,"ELEMENT_SET_NO":999,"REV_AT_EPOCH":21305,"BSTAR":0.00020829,"MEAN_MOTION_DOT":9.8e-7,"MEAN_MOTION_DDOT":0},{"OBJECT_NAME":"ONEWEB-0382","OBJECT_ID":"2021-090AF","EPOCH":"2026-02-10T02:26:13.729920","MEAN_MOTION":13.20770625,"ECCENTRICITY":0.0001703,"INCLINATION":87.9214,"RA_OF_ASC_NODE":299.8001,"ARG_OF_PERICENTER":69.6636,"MEAN_ANOMALY":290.468,"EPHEMERIS_TYPE":0,"CLASSIFICATION_TYPE":"U","NORAD_CAT_ID":49308,"ELEMENT_SET_NO":999,"REV_AT_EPOCH":21304,"BSTAR":-3.9605e-5,"MEAN_MOTION_DOT":-3.0e-8,"MEAN_MOTION_DDOT":0},{"OBJECT_NAME":"ONEWEB-0383","OBJECT_ID":"2021-090AG","EPOCH":"2026-02-10T03:26:09.191616","MEAN_MOTION":13.14503781,"ECCENTRICITY":0.0001624,"INCLINATION":87.9032,"RA_OF_ASC_NODE":315.024,"ARG_OF_PERICENTER":71.9645,"MEAN_ANOMALY":288.1662,"EPHEMERIS_TYPE":0,"CLASSIFICATION_TYPE":"U","NORAD_CAT_ID":49309,"ELEMENT_SET_NO":999,"REV_AT_EPOCH":21090,"BSTAR":0.0004539,"MEAN_MOTION_DOT":1.81e-6,"MEAN_MOTION_DDOT":0},{"OBJECT_NAME":"ONEWEB-0384","OBJECT_ID":"2021-090AH","EPOCH":"2026-02-10T02:14:47.476320","MEAN_MOTION":13.20803964,"ECCENTRICITY":0.0001553,"INCLINATION":87.9224,"RA_OF_ASC_NODE":299.8423,"ARG_OF_PERICENTER":64.5368,"MEAN_ANOMALY":295.5926,"EPHEMERIS_TYPE":0,"CLASSIFICATION_TYPE":"U","NORAD_CAT_ID":49310,"ELEMENT_SET_NO":999,"REV_AT_EPOCH":21305,"BSTAR":-0.00045842,"MEAN_MOTION_DOT":-1.74e-6,"MEAN_MOTION_DDOT":0},{"OBJECT_NAME":"ONEWEB-0385","OBJECT_ID":"2021-090AJ","EPOCH":"2026-02-10T02:14:52.108224","MEAN_MOTION":13.20768864,"ECCENTRICITY":0.0001435,"INCLINATION":87.9203,"RA_OF_ASC_NODE":299.8075,"ARG_OF_PERICENTER":83.0154,"MEAN_ANOMALY":277.1142,"EPHEMERIS_TYPE":0,"CLASSIFICATION_TYPE":"U","NORAD_CAT_ID":49311,"ELEMENT_SET_NO":999,"REV_AT_EPOCH":21302,"BSTAR":0.010971,"MEAN_MOTION_DOT":4.476e-5,"MEAN_MOTION_DDOT":0},{"OBJECT_NAME":"ONEWEB-0386","OBJECT_ID":"2021-090AK","EPOCH":"2026-02-10T02:39:51.579360","MEAN_MOTION":13.2077068,"ECCENTRICITY":0.0001667,"INCLINATION":87.9215,"RA_OF_ASC_NODE":299.7867,"ARG_OF_PERICENTER":67.4441,"MEAN_ANOMALY":292.6868,"EPHEMERIS_TYPE":0,"CLASSIFICATION_TYPE":"U","NORAD_CAT_ID":49312,"ELEMENT_SET_NO":999,"REV_AT_EPOCH":21304,"BSTAR":0.00018326,"MEAN_MOTION_DOT":8.7e-7,"MEAN_MOTION_DDOT":0},{"OBJECT_NAME":"ONEWEB-0387","OBJECT_ID":"2021-090AL","EPOCH":"2026-02-10T02:17:08.461248","MEAN_MOTION":13.20770716,"ECCENTRICITY":0.0001945,"INCLINATION":87.9205,"RA_OF_ASC_NODE":299.8305,"ARG_OF_PERICENTER":76.5867,"MEAN_ANOMALY":283.5483,"EPHEMERIS_TYPE":0,"CLASSIFICATION_TYPE":"U","NORAD_CAT_ID":49313,"ELEMENT_SET_NO":999,"REV_AT_EPOCH":21304,"BSTAR":7.9954e-5,"MEAN_MOTION_DOT":4.5e-7,"MEAN_MOTION_DDOT":0},{"OBJECT_NAME":"ONEWEB-0388","OBJECT_ID":"2021-090AM","EPOCH":"2026-02-09T19:23:45.792096","MEAN_MOTION":13.1972331,"ECCENTRICITY":0.00018268,"INCLINATION":87.9248,"RA_OF_ASC_NODE":330.3303,"ARG_OF_PERICENTER":73.5874,"MEAN_ANOMALY":286.5459,"EPHEMERIS_TYPE":0,"CLASSIFICATION_TYPE":"U","NORAD_CAT_ID":49314,"ELEMENT_SET_NO":999,"REV_AT_EPOCH":20961,"BSTAR":0.00083772781,"MEAN_MOTION_DOT":3.48e-6,"MEAN_MOTION_DDOT":0},{"OBJECT_NAME":"ONEWEB-0389","OBJECT_ID":"2021-132A","EPOCH":"2026-02-09T22:18:45.347328","MEAN_MOTION":13.17650684,"ECCENTRICITY":0.0002142,"INCLINATION":87.9103,"RA_OF_ASC_NODE":31.149,"ARG_OF_PERICENTER":77.5883,"MEAN_ANOMALY":282.5488,"EPHEMERIS_TYPE":0,"CLASSIFICATION_TYPE":"U","NORAD_CAT_ID":50469,"ELEMENT_SET_NO":999,"REV_AT_EPOCH":20132,"BSTAR":6.7686e-7,"MEAN_MOTION_DOT":1.3e-7,"MEAN_MOTION_DDOT":0},{"OBJECT_NAME":"ONEWEB-0390","OBJECT_ID":"2021-132B","EPOCH":"2026-02-09T22:21:12.182400","MEAN_MOTION":13.17649699,"ECCENTRICITY":0.0002077,"INCLINATION":87.9102,"RA_OF_ASC_NODE":31.1496,"ARG_OF_PERICENTER":91.6444,"MEAN_ANOMALY":268.4925,"EPHEMERIS_TYPE":0,"CLASSIFICATION_TYPE":"U","NORAD_CAT_ID":50470,"ELEMENT_SET_NO":999,"REV_AT_EPOCH":20132,"BSTAR":0.00010135,"MEAN_MOTION_DOT":5.2e-7,"MEAN_MOTION_DDOT":0},{"OBJECT_NAME":"ONEWEB-0391","OBJECT_ID":"2021-132C","EPOCH":"2026-02-09T22:23:37.477824","MEAN_MOTION":13.17647427,"ECCENTRICITY":0.0002676,"INCLINATION":87.91,"RA_OF_ASC_NODE":31.1583,"ARG_OF_PERICENTER":79.47,"MEAN_ANOMALY":280.6733,"EPHEMERIS_TYPE":0,"CLASSIFICATION_TYPE":"U","NORAD_CAT_ID":50471,"ELEMENT_SET_NO":999,"REV_AT_EPOCH":20132,"BSTAR":6.689e-5,"MEAN_MOTION_DOT":3.9e-7,"MEAN_MOTION_DDOT":0}]
